{
  "type": "FeatureCollection",
  "features": [
    {
      "type": "Feature",
      "properties": {
        "norad_id": 66549,
        "name": "SHIJIAN-28 (SJ-28)",
        "group": "last-30-days",
        "lat": -3.151179089335135,
        "lon": 134.10346005410523,
        "alt_km": 35787.77509013235,
        "timestamp": "2025-12-23T18:59:30.755655+00:00",
        "meta_object_name": "SHIJIAN-28 (SJ-28)",
        "meta_object_id": "2025-277A",
        "meta_epoch": "2025-12-23T02:05:51.535392",
        "meta_mean_motion": 1.00266411,
        "meta_eccentricity": 0.00010297,
        "meta_inclination": 4.9933,
        "meta_ra_of_asc_node": 274.7942,
        "meta_arg_of_pericenter": 133.6218,
        "meta_mean_anomaly": 191.7028,
        "meta_ephemeris_type": 0,
        "meta_classification_type": "U",
        "meta_norad_cat_id": 66549,
        "meta_element_set_no": 999,
        "meta_rev_at_epoch": 38,
        "meta_bstar": 0,
        "meta_mean_motion_dot": -3.36e-06,
        "meta_mean_motion_ddot": 0,
        "tle_line1": "1 66549U 25277A   25357.08740203 -.00000336  00000+0  00000+0 0  9990",
        "tle_line2": "2 66549   4.9933 274.7942 0001029 133.6218 191.7028  1.00266411   381"
      },
      "geometry": {
        "type": "Point",
        "coordinates": [
          134.10346005410523,
          -3.151179089335135
        ]
      }
    },
    {
      "type": "Feature",
      "properties": {
        "norad_id": 66550,
        "name": "CZ-7A R/B",
        "group": "last-30-days",
        "lat": 11.546790895846854,
        "lon": -43.24882291790807,
        "alt_km": 17981.681335020872,
        "timestamp": "2025-12-23T18:59:30.755705+00:00",
        "meta_object_name": "CZ-7A R/B",
        "meta_object_id": "2025-277B",
        "meta_epoch": "2025-12-18T08:54:45.891072",
        "meta_mean_motion": 2.8884184,
        "meta_eccentricity": 0.6879086,
        "meta_inclination": 14.3533,
        "meta_ra_of_asc_node": 266.9093,
        "meta_arg_of_pericenter": 194.6822,
        "meta_mean_anomaly": 125.1782,
        "meta_ephemeris_type": 0,
        "meta_classification_type": "U",
        "meta_norad_cat_id": 66550,
        "meta_element_set_no": 999,
        "meta_rev_at_epoch": 50,
        "meta_bstar": 0.0030391,
        "meta_mean_motion_dot": 0.0266328,
        "meta_mean_motion_ddot": 1.4058e-06,
        "tle_line1": "1 66550U 25277B   25352.37136448  .02663280  14058-5  30391-2 0  9996",
        "tle_line2": "2 66550  14.3533 266.9093 6879086 194.6822 125.1782  2.88841840   508"
      },
      "geometry": {
        "type": "Point",
        "coordinates": [
          -43.24882291790807,
          11.546790895846854
        ]
      }
    },
    {
      "type": "Feature",
      "properties": {
        "norad_id": 66554,
        "name": "GLOBAL-33",
        "group": "last-30-days",
        "lat": -32.35718732310116,
        "lon": -142.09268111081096,
        "alt_km": 472.1640113898966,
        "timestamp": "2025-12-23T18:59:30.755729+00:00",
        "meta_object_name": "GLOBAL-33",
        "meta_object_id": "2025-267A",
        "meta_epoch": "2025-12-23T05:27:35.304480",
        "meta_mean_motion": 15.31694249,
        "meta_eccentricity": 0.00043548,
        "meta_inclination": 42.0212,
        "meta_ra_of_asc_node": 356.4455,
        "meta_arg_of_pericenter": 164.9071,
        "meta_mean_anomaly": 195.1897,
        "meta_ephemeris_type": 0,
        "meta_classification_type": "U",
        "meta_norad_cat_id": 66554,
        "meta_element_set_no": 999,
        "meta_rev_at_epoch": 501,
        "meta_bstar": 0.00045045081,
        "meta_mean_motion_dot": 0.00013861,
        "meta_mean_motion_ddot": 0,
        "tle_line1": "1 66554U 25267A   25357.22749195  .00013861  00000+0  45045-3 0  9998",
        "tle_line2": "2 66554  42.0212 356.4455 0004354 164.9071 195.1897 15.31694249  5015"
      },
      "geometry": {
        "type": "Point",
        "coordinates": [
          -142.09268111081096,
          -32.35718732310116
        ]
      }
    },
    {
      "type": "Feature",
      "properties": {
        "norad_id": 66557,
        "name": "STARLINK-35699",
        "group": "last-30-days",
        "lat": -11.295784272263003,
        "lon": 44.09298632629473,
        "alt_km": 426.9512086374443,
        "timestamp": "2025-12-23T18:59:30.755741+00:00",
        "meta_object_name": "STARLINK-35699",
        "meta_object_id": "2025-268A",
        "meta_epoch": "2025-12-23T00:00:00.998784",
        "meta_mean_motion": 15.50173277,
        "meta_eccentricity": 0.000101,
        "meta_inclination": 43.0003,
        "meta_ra_of_asc_node": 61.0844,
        "meta_arg_of_pericenter": 265.9648,
        "meta_mean_anomaly": 341.0922,
        "meta_ephemeris_type": 0,
        "meta_classification_type": "U",
        "meta_norad_cat_id": 66557,
        "meta_element_set_no": 999,
        "meta_rev_at_epoch": 610,
        "meta_bstar": -0.040042,
        "meta_mean_motion_dot": -0.02060462,
        "meta_mean_motion_ddot": 0,
        "tle_line1": "1 66557U 25268A   25357.00001156 -.02060462  00000+0 -40042-1 0  9999",
        "tle_line2": "2 66557  43.0003  61.0844 0001010 265.9648 341.0922 15.50173277  6102"
      },
      "geometry": {
        "type": "Point",
        "coordinates": [
          44.09298632629473,
          -11.295784272263003
        ]
      }
    },
    {
      "type": "Feature",
      "properties": {
        "norad_id": 66558,
        "name": "STARLINK-35695",
        "group": "last-30-days",
        "lat": -5.765903497438891,
        "lon": 50.230459278776195,
        "alt_km": 424.0051305199513,
        "timestamp": "2025-12-23T18:59:30.755753+00:00",
        "meta_object_name": "STARLINK-35695",
        "meta_object_id": "2025-268B",
        "meta_epoch": "2025-12-23T00:00:00.998784",
        "meta_mean_motion": 15.51008751,
        "meta_eccentricity": 0.0001098,
        "meta_inclination": 43.0007,
        "meta_ra_of_asc_node": 61.071,
        "meta_arg_of_pericenter": 264.5548,
        "meta_mean_anomaly": 348.3176,
        "meta_ephemeris_type": 0,
        "meta_classification_type": "U",
        "meta_norad_cat_id": 66558,
        "meta_element_set_no": 999,
        "meta_rev_at_epoch": 610,
        "meta_bstar": -0.038708,
        "meta_mean_motion_dot": -0.02053479,
        "meta_mean_motion_ddot": 0,
        "tle_line1": "1 66558U 25268B   25357.00001156 -.02053479  00000+0 -38708-1 0  9996",
        "tle_line2": "2 66558  43.0007  61.0710 0001098 264.5548 348.3176 15.51008751  6105"
      },
      "geometry": {
        "type": "Point",
        "coordinates": [
          50.230459278776195,
          -5.765903497438891
        ]
      }
    },
    {
      "type": "Feature",
      "properties": {
        "norad_id": 66559,
        "name": "STARLINK-35419",
        "group": "last-30-days",
        "lat": 13.263231478712383,
        "lon": 71.03653175216756,
        "alt_km": 407.3993431781646,
        "timestamp": "2025-12-23T18:59:30.755765+00:00",
        "meta_object_name": "STARLINK-35419",
        "meta_object_id": "2025-268C",
        "meta_epoch": "2025-12-23T08:00:03.000384",
        "meta_mean_motion": 15.54641365,
        "meta_eccentricity": 0.00015577,
        "meta_inclination": 43.0002,
        "meta_ra_of_asc_node": 59.0758,
        "meta_arg_of_pericenter": 268.9816,
        "meta_mean_anomaly": 66.3145,
        "meta_ephemeris_type": 0,
        "meta_classification_type": "U",
        "meta_norad_cat_id": 66559,
        "meta_element_set_no": 999,
        "meta_rev_at_epoch": 610,
        "meta_bstar": -0.03441203,
        "meta_mean_motion_dot": -0.02081697,
        "meta_mean_motion_ddot": 0,
        "tle_line1": "1 66559U 25268C   25357.33336806 -.02081697  00000+0 -34412-1 0  9997",
        "tle_line2": "2 66559  43.0002  59.0758 0001557 268.9816  66.3145 15.54641365  6106"
      },
      "geometry": {
        "type": "Point",
        "coordinates": [
          71.03653175216756,
          13.263231478712383
        ]
      }
    },
    {
      "type": "Feature",
      "properties": {
        "norad_id": 66560,
        "name": "STARLINK-35411",
        "group": "last-30-days",
        "lat": 15.514308391157083,
        "lon": 73.70751811517194,
        "alt_km": 405.55303906004156,
        "timestamp": "2025-12-23T18:59:30.755801+00:00",
        "meta_object_name": "STARLINK-35411",
        "meta_object_id": "2025-268D",
        "meta_epoch": "2025-12-23T08:00:03.000384",
        "meta_mean_motion": 15.55210672,
        "meta_eccentricity": 0.00014542,
        "meta_inclination": 43.0002,
        "meta_ra_of_asc_node": 59.07,
        "meta_arg_of_pericenter": 269.1855,
        "meta_mean_anomaly": 68.6381,
        "meta_ephemeris_type": 0,
        "meta_classification_type": "U",
        "meta_norad_cat_id": 66560,
        "meta_element_set_no": 999,
        "meta_rev_at_epoch": 610,
        "meta_bstar": -0.034390662,
        "meta_mean_motion_dot": -0.02119993,
        "meta_mean_motion_ddot": 0,
        "tle_line1": "1 66560U 25268D   25357.33336806 -.02119993  00000+0 -34391-1 0  9996",
        "tle_line2": "2 66560  43.0002  59.0700 0001454 269.1855  68.6381 15.55210672  6108"
      },
      "geometry": {
        "type": "Point",
        "coordinates": [
          73.70751811517194,
          15.514308391157083
        ]
      }
    }
  ]
}